OBJECT_NAME,OBJECT_ID,EPOCH,MEAN_MOTION,ECCENTRICITY,INCLINATION,RA_OF_ASC_NODE,ARG_OF_PERICENTER,MEAN_ANOMALY,EPHEMERIS_TYPE,CLASSIFICATION_TYPE,NORAD_CAT_ID,ELEMENT_SET_NO,REV_AT_EPOCH,BSTAR,MEAN_MOTION_DOT,MEAN_MOTION_DDOT
GSAT-17,2017-040B,2026-06-09T03:30:54.518976,1.00271689,.0001577,0.1055,88.3225,213.1314,102.3113,0,U,42815,999,3270,0,-.241E-5,0
INTELSAT 35E (IS-35E),2017-041A,2026-06-09T04:33:04.283424,1.00269581,.0001624,0.0200,353.1978,84.8725,213.2858,0,U,42818,999,3273,0,0,0
COSMOS 2520,2017-046A,2026-06-08T15:18:27.268704,1.00270113,.000117,0.0442,86.9350,55.5058,29.2057,0,U,42907,999,3231,0,.153E-5,0
TDRS 13,2017-047A,2026-06-09T03:01:04.877760,1.00271945,.0014577,3.4494,2.5168,105.3899,183.4326,0,U,42915,999,3226,0,-.85E-6,0
QZS-3 (MICHIBIKI-3),2017-048A,2026-06-09T00:15:07.816896,1.00269294,.0002671,0.0571,180.6010,266.7687,300.8273,0,U,42917,999,3217,0,-.331E-5,0
AMAZONAS 5,2017-053A,2026-06-09T01:04:12.557856,1.00269803,.0002419,0.0316,323.8491,66.0809,182.5597,0,U,42934,999,3196,0,-.266E-5,0
ASIASAT 9,2017-057A,2026-06-07T22:33:51.194304,1.00270474,.00024816,0.0114,80.9491,346.4825,289.4719,0,U,42942,999,3176,0,-.344E-5,0
INTELSAT 37E (IS-37E),2017-059A,2026-06-09T03:21:38.710368,1.00268430,.0002303,0.0194,353.6646,107.7787,188.4837,0,U,42950,999,3198,0,0,0
BSAT-4A,2017-059B,2026-06-09T00:10:15.784032,1.00272912,.0004164,0.0365,6.7991,58.5529,304.4340,0,U,42951,999,3171,0,-.334E-5,0
QZS-4 (MICHIBIKI-4),2017-062A,2026-06-08T08:52:03.139392,1.00253721,.07450051,40.1136,343.5961,271.5827,272.2936,0,U,42965,999,3171,0,-.31E-5,0
SES-11 (ECHOSTAR 105),2017-063A,2026-06-09T02:34:24.798144,1.00270863,.00027,0.0148,350.5470,99.0409,101.5512,0,U,42967,999,3164,0,-.72E-6,0
KOREASAT 5A,2017-067A,2026-06-09T00:20:38.773824,1.00271308,.0000579,0.0110,316.6482,128.0432,291.0274,0,U,42984,999,3144,0,-.342E-5,0
ALCOMSAT 1,2017-078A,2026-06-09T03:21:38.710368,1.00272647,.0002351,0.0353,72.0333,1.8016,209.3044,0,U,43039,999,3121,0,-.169E-5,0
SBIRS GEO-3 (USA 282),2018-009A,2026-06-09T05:04:14.261088,1.00271795,.000204,2.1783,11.6945,62.6870,99.8744,0,U,43162,999,3076,0,.144E-5,0
AL YAH 3,2018-012A,2026-06-09T03:21:38.710368,1.00271279,.0004093,1.5300,83.2060,355.1829,209.4508,0,U,43174,999,3076,0,-.139E-5,0
SES-14,2018-012B,2026-06-09T04:19:38.531712,1.00270502,.0001054,0.0211,29.4568,51.2493,194.2662,0,U,43175,999,694,0,-.262E-5,0
GOES 17,2018-022A,2026-06-09T02:38:45.637152,1.00271617,.0000581,0.9157,85.8611,12.6123,109.2210,0,U,43226,999,3034,0,-.166E-5,0
HISPASAT 30W-6,2018-023A,2026-06-09T03:29:38.633856,1.00270106,.000607,0.0466,43.0160,24.4288,212.4909,0,U,43228,999,3032,0,-.2E-5,0
SUPERBIRD-B3,2018-033A,2026-06-09T02:07:52.085856,1.00270837,.0001283,0.0185,295.4772,165.2297,350.7373,0,U,43271,999,2998,0,-.76E-6,0
HYLAS 4,2018-033B,2026-06-09T03:29:38.633856,1.00268669,.0000983,0.0185,56.8858,30.5870,188.9993,0,U,43272,999,2998,0,-.217E-5,0
IRNSS-1I,2018-035A,2026-06-08T23:30:17.137728,1.00270374,.0017795,28.7349,74.3250,182.7620,47.7314,0,U,43286,999,2999,0,.92E-6,0
USA 283,2018-036A,2026-06-07T10:38:30.691392,1.00268454,.0000458,0.0123,333.7419,159.1187,56.7029,0,U,43339,999,2519,0,0,0
COSMOS 2526,2018-037A,2026-06-09T05:23:28.862304,1.00275064,.0000453,0.0185,8.4968,200.3061,257.7494,0,U,43432,999,2988,0,-.327E-5,0
APSTAR-6C,2018-041A,2026-06-09T00:17:07.626912,1.00273005,.0001193,0.0257,330.3359,24.0459,41.3055,0,U,43450,999,2972,0,-.301E-5,0
BANGABANDHUSAT-1,2018-044A,2026-06-09T00:12:53.032896,1.00268601,.0001785,0.0157,332.3899,109.9362,297.3814,0,U,43463,999,2962,0,0,0
SES-12,2018-049A,2026-06-09T03:31:16.982976,1.00269587,.0000856,0.0270,41.9122,245.3533,118.0865,0,U,43488,999,2933,0,-.252E-5,0
FENGYUN 2H,2018-050A,2026-06-09T01:44:16.848672,1.00271216,.0001581,3.0094,79.1692,126.3944,157.4108,0,U,43491,999,2935,0,-.114E-5,0
BEIDOU-2 IGSO-7,2018-057A,2026-06-09T00:01:49.831680,1.00254101,.0104904,55.1932,163.1291,237.9642,327.3297,0,U,43539,999,2904,0,.33E-6,0
TELSTAR 19V,2018-059A,2026-06-09T01:05:04.975008,1.00255741,.0003229,0.0357,175.1217,305.1580,90.4046,0,U,43562,999,2906,0,-.262E-5,0
TELKOM 4 (MERAH PUTIH),2018-064A,2026-06-09T00:09:45.831744,1.00268316,.0001358,0.0165,340.2152,132.9698,254.6460,0,U,43587,999,2879,0,0,0
TELSTAR 18V,2018-069A,2026-06-09T00:18:15.018048,1.00270856,.0001848,0.0204,287.1394,148.1604,324.6774,0,U,43611,999,2855,0,-.277E-5,0
AZERSPACE 2 (IS-38),2018-074A,2026-06-09T01:34:27.475392,1.00271306,.0001318,0.0015,359.7084,78.7354,247.7297,0,U,43632,999,2836,0,.153E-5,0
